{"type": "FeatureCollection", "features": [ {"type": "Feature", "properties": {"norad_id": 29820, "name": "FENGYUN 1C DEB", "group": "fengyun-1c-debris", "lat": -61.996668931048816, "lon": 157.19387244034553, "alt_km": 839.9293130414053, "timestamp": "2025-12-13T03:42:11.544486+00:00", "meta": {"OBJECT_NAME": "FENGYUN 1C DEB", "OBJECT_ID": "1999-025DN", "EPOCH": "2025-12-11T23:27:55.712160", "MEAN_MOTION": 14.02602288, "ECCENTRICITY": 0.0072054, "INCLINATION": 98.8317, "RA_OF_ASC_NODE": 353.0524, "ARG_OF_PERICENTER": 239.8861, "MEAN_ANOMALY": 185.6104, "EPHEMERIS_TYPE": 0, "CLASSIFICATION_TYPE": "U", "NORAD_CAT_ID": 29820, "ELEMENT_SET_NO": 999, "REV_AT_EPOCH": 96549, "BSTAR": 0.0008048, "MEAN_MOTION_DOT": 1.226e-05, "MEAN_MOTION_DDOT": 0}, "tle": {"line1": "1 29820U 99025DN  25345.97772815  .00001226  00000+0  80480-3 0  9994", "line2": "2 29820  98.8317 353.0524 0072054 239.8861 185.6104 14.02602288965497"}}, "geometry": {"type": "Point", "coordinates": [157.19387244034553, -61.996668931048816]}}, {"type": "Feature", "properties": {"norad_id": 29821, "name": "FENGYUN 1C DEB", "group": "fengyun-1c-debris", "lat": -54.52324378255687, "lon": 54.806665363765504, "alt_km": 1133.88484705049, "timestamp": "2025-12-13T03:42:11.544496+00:00", "meta": {"OBJECT_NAME": "FENGYUN 1C DEB", "OBJECT_ID": "1999-025DP", "EPOCH": "2025-12-12T02:35:59.203968", "MEAN_MOTION": 14.11063032, "ECCENTRICITY": 0.03764061, "INCLINATION": 98.8737, "RA_OF_ASC_NODE": 41.1081, "ARG_OF_PERICENTER": 122.4865, "MEAN_ANOMALY": 272.0321, "EPHEMERIS_TYPE": 0, "CLASSIFICATION_TYPE": "U", "NORAD_CAT_ID": 29821, "ELEMENT_SET_NO": 999, "REV_AT_EPOCH": 96502, "BSTAR": 0.0011484504, "MEAN_MOTION_DOT": 3.986e-05, "MEAN_MOTION_DDOT": 0}, "tle": {"line1": "1 29821U 99025DP  25346.10832412  .00003986  00000+0  11485-2 0  9994", "line2": "2 29821  98.8737  41.1081 0376406 122.4865 272.0321 14.11063032965025"}}, "geometry": {"type": "Point", "coordinates": [54.806665363765504, -54.52324378255687]}}, {"type": "Feature", "properties": {"norad_id": 29827, "name": "FENGYUN 1C DEB", "group": "fengyun-1c-debris", "lat": -55.35651098970745, "lon": -9.00300689568065, "alt_km": 809.455797723992, "timestamp": "2025-12-13T03:42:11.544506+00:00", "meta": {"OBJECT_NAME": "FENGYUN 1C DEB", "OBJECT_ID": "1999-025DV", "EPOCH": "2025-12-11T23:33:10.578816", "MEAN_MOTION": 14.21685659, "ECCENTRICITY": 0.0025063, "INCLINATION": 98.6023, "RA_OF_ASC_NODE": 337.1992, "ARG_OF_PERICENTER": 324.7541, "MEAN_ANOMALY": 99.3588, "EPHEMERIS_TYPE": 0, "CLASSIFICATION_TYPE": "U", "NORAD_CAT_ID": 29827, "ELEMENT_SET_NO": 999, "REV_AT_EPOCH": 97852, "BSTAR": 0.00052424, "MEAN_MOTION_DOT": 1.112e-05, "MEAN_MOTION_DDOT": 0}, "tle": {"line1": "1 29827U 99025DV  25345.98137244  .00001112  00000+0  52424-3 0  9994", "line2": "2 29827  98.6023 337.1992 0025063 324.7541  99.3588 14.21685659978524"}}, "geometry": {"type": "Point", "coordinates": [-9.00300689568065, -55.35651098970745]}}, {"type": "Feature", "properties": {"norad_id": 29828, "name": "FENGYUN 1C DEB", "group": "fengyun-1c-debris", "lat": -19.832342070018395, "lon": 35.80413854714558, "alt_km": 915.0355874906345, "timestamp": "2025-12-13T03:42:11.544517+00:00", "meta": {"OBJECT_NAME": "FENGYUN 1C DEB", "OBJECT_ID": "1999-025DW", "EPOCH": "2025-12-12T02:22:24.224736", "MEAN_MOTION": 14.08160571, "ECCENTRICITY": 0.00613844, "INCLINATION": 98.7702, "RA_OF_ASC_NODE": 31.5869, "ARG_OF_PERICENTER": 157.85, "MEAN_ANOMALY": 234.952, "EPHEMERIS_TYPE": 0, "CLASSIFICATION_TYPE": "U", "NORAD_CAT_ID": 29828, "ELEMENT_SET_NO": 999, "REV_AT_EPOCH": 96728, "BSTAR": 0.0010784553, "MEAN_MOTION_DOT": 1.829e-05, "MEAN_MOTION_DDOT": 0}, "tle": {"line1": "1 29828U 99025DW  25346.09889149  .00001829  00000+0  10785-2 0  9994", "line2": "2 29828  98.7702  31.5869 0061384 157.8500 234.9520 14.08160571967284"}}, "geometry": {"type": "Point", "coordinates": [35.80413854714558, -19.832342070018395]}}, {"type": "Feature", "properties": {"norad_id": 29832, "name": "FENGYUN 1C DEB", "group": "fengyun-1c-debris", "lat": 79.49063491094944, "lon": 41.787686822750544, "alt_km": 826.4792465867913, "timestamp": "2025-12-13T03:42:11.544527+00:00", "meta": {"OBJECT_NAME": "FENGYUN 1C DEB", "OBJECT_ID": "1999-025EA", "EPOCH": "2025-12-12T07:31:37.038432", "MEAN_MOTION": 14.56555074, "ECCENTRICITY": 0.01922246, "INCLINATION": 98.8194, "RA_OF_ASC_NODE": 97.7156, "ARG_OF_PERICENTER": 284.4192, "MEAN_ANOMALY": 73.574, "EPHEMERIS_TYPE": 0, "CLASSIFICATION_TYPE": "U", "NORAD_CAT_ID": 29832, "ELEMENT_SET_NO": 999, "REV_AT_EPOCH": 249, "BSTAR": 0.00024525392, "MEAN_MOTION_DOT": 1.338e-05, "MEAN_MOTION_DDOT": 0}, "tle": {"line1": "1 29832U 99025EA  25346.31362313  .00001338  00000+0  24525-3 0  9996", "line2": "2 29832  98.8194  97.7156 0192224 284.4192  73.5740 14.56555074  2493"}}, "geometry": {"type": "Point", "coordinates": [41.787686822750544, 79.49063491094944]}}, {"type": "Feature", "properties": {"norad_id": 29833, "name": "FENGYUN 1C DEB", "group": "fengyun-1c-debris", "lat": 38.77724896207108, "lon": 156.91523930430031, "alt_km": 617.518673101813, "timestamp": "2025-12-13T03:42:11.544538+00:00", "meta": {"OBJECT_NAME": "FENGYUN 1C DEB", "OBJECT_ID": "1999-025EB", "EPOCH": "2025-12-10T21:55:07.232160", "MEAN_MOTION": 14.91029758, "ECCENTRICITY": 0.0088845, "INCLINATION": 99.077, "RA_OF_ASC_NODE": 326.9611, "ARG_OF_PERICENTER": 262.9951, "MEAN_ANOMALY": 96.1152, "EPHEMERIS_TYPE": 0, "CLASSIFICATION_TYPE": "U", "NORAD_CAT_ID": 29833, "ELEMENT_SET_NO": 999, "REV_AT_EPOCH": 544, "BSTAR": 0.0018908, "MEAN_MOTION_DOT": 0.00020144, "MEAN_MOTION_DDOT": 0}, "tle": {"line1": "1 29833U 99025EB  25344.91327815  .00020144  00000+0  18908-2 0  9992", "line2": "2 29833  99.0770 326.9611 0088845 262.9951  96.1152 14.91029758  5447"}}, "geometry": {"type": "Point", "coordinates": [156.91523930430031, 38.77724896207108]}}, {"type": "Feature", "properties": {"norad_id": 29835, "name": "FENGYUN 1C DEB", "group": "fengyun-1c-debris", "lat": -73.2260907209224, "lon": -96.25603859914688, "alt_km": 845.8051672550528, "timestamp": "2025-12-13T03:42:11.544549+00:00", "meta": {"OBJECT_NAME": "FENGYUN 1C DEB", "OBJECT_ID": "1999-025ED", "EPOCH": "2025-12-12T06:49:38.159616", "MEAN_MOTION": 14.43374249, "ECCENTRICITY": 0.01679507, "INCLINATION": 99.0256, "RA_OF_ASC_NODE": 114.647, "ARG_OF_PERICENTER": 38.5772, "MEAN_ANOMALY": 21.2495, "EPHEMERIS_TYPE": 0, "CLASSIFICATION_TYPE": "U", "NORAD_CAT_ID": 29835, "ELEMENT_SET_NO": 999, "REV_AT_EPOCH": 99488, "BSTAR": 9.7433719e-05, "MEAN_MOTION_DOT": 3.33e-06, "MEAN_MOTION_DDOT": 0}, "tle": {"line1": "1 29835U 99025ED  25346.28446944  .00000333  00000+0  97434-4 0  9992", "line2": "2 29835  99.0256 114.6470 0167950  38.5772  21.2495 14.43374249994885"}}, "geometry": {"type": "Point", "coordinates": [-96.25603859914688, -73.2260907209224]}}, {"type": "Feature", "properties": {"norad_id": 29836, "name": "FENGYUN 1C DEB", "group": "fengyun-1c-debris", "lat": 18.43239398376047, "lon": -94.16489016247749, "alt_km": 627.7353963143532, "timestamp": "2025-12-13T03:42:11.544559+00:00", "meta": {"OBJECT_NAME": "FENGYUN 1C DEB", "OBJECT_ID": "1999-025EE", "EPOCH": "2025-12-12T05:44:43.646784", "MEAN_MOTION": 14.54098114, "ECCENTRICITY": 0.01545375, "INCLINATION": 98.1879, "RA_OF_ASC_NODE": 82.1893, "ARG_OF_PERICENTER": 203.9256, "MEAN_ANOMALY": 211.9627, "EPHEMERIS_TYPE": 0, "CLASSIFICATION_TYPE": "U", "NORAD_CAT_ID": 29836, "ELEMENT_SET_NO": 999, "REV_AT_EPOCH": 63548, "BSTAR": 0.0010735271, "MEAN_MOTION_DOT": 5.267e-05, "MEAN_MOTION_DDOT": 0}, "tle": {"line1": "1 29836U 99025EE  25346.23939406  .00005267  00000+0  10735-2 0  9996", "line2": "2 29836  98.1879  82.1893 0154537 203.9256 211.9627 14.54098114635486"}}, "geometry": {"type": "Point", "coordinates": [-94.16489016247749, 18.43239398376047]}}, {"type": "Feature", "properties": {"norad_id": 29841, "name": "FENGYUN 1C DEB", "group": "fengyun-1c-debris", "lat": 14.437001826563101, "lon": 116.60957662289321, "alt_km": 877.0916323401261, "timestamp": "2025-12-13T03:42:11.544569+00:00", "meta": {"OBJECT_NAME": "FENGYUN 1C DEB", "OBJECT_ID": "1999-025EK", "EPOCH": "2025-12-11T15:14:42.080928", "MEAN_MOTION": 14.46466893, "ECCENTRICITY": 0.02005833, "INCLINATION": 98.8182, "RA_OF_ASC_NODE": 292.738, "ARG_OF_PERICENTER": 337.0109, "MEAN_ANOMALY": 202.9709, "EPHEMERIS_TYPE": 0, "CLASSIFICATION_TYPE": "U", "NORAD_CAT_ID": 29841, "ELEMENT_SET_NO": 999, "REV_AT_EPOCH": 99307, "BSTAR": 0.00090632374, "MEAN_MOTION_DOT": 4.132e-05, "MEAN_MOTION_DDOT": 0}, "tle": {"line1": "1 29841U 99025EK  25345.63520927  .00004132  00000+0  90632-3 0  9994", "line2": "2 29841  98.8182 292.7380 0200583 337.0109 202.9709 14.46466893993072"}}, "geometry": {"type": "Point", "coordinates": [116.60957662289321, 14.437001826563101]}}, {"type": "Feature", "properties": {"norad_id": 29842, "name": "FENGYUN 1C DEB", "group": "fengyun-1c-debris", "lat": -54.96292089997013, "lon": -117.71351538346748, "alt_km": 674.455497107072, "timestamp": "2025-12-13T03:42:11.544579+00:00", "meta": {"OBJECT_NAME": "FENGYUN 1C DEB", "OBJECT_ID": "1999-025EL", "EPOCH": "2025-12-12T05:22:57.150912", "MEAN_MOTION": 14.60243235, "ECCENTRICITY": 0.0109114, "INCLINATION": 98.5686, "RA_OF_ASC_NODE": 73.7426, "ARG_OF_PERICENTER": 166.9162, "MEAN_ANOMALY": 221.52, "EPHEMERIS_TYPE": 0, "CLASSIFICATION_TYPE": "U", "NORAD_CAT_ID": 29842, "ELEMENT_SET_NO": 999, "REV_AT_EPOCH": 99346, "BSTAR": 0.0021729163, "MEAN_MOTION_DOT": 0.0001136, "MEAN_MOTION_DDOT": 0}, "tle": {"line1": "1 29842U 99025EL  25346.22427258  .00011360  00000+0  21729-2 0  9995", "line2": "2 29842  98.5686  73.7426 0109114 166.9162 221.5200 14.60243235993468"}}, "geometry": {"type": "Point", "coordinates": [-117.71351538346748, -54.96292089997013]}}]}